{"fetched_at":"2026-07-18T17:30:07.678Z","source":"https://celestrak.org/NORAD/elements/gp.php?NAME=NUSAT&FORMAT=JSON","constellation":"satellogic","records":[{"OBJECT_NAME":"NUSAT-47","OBJECT_ID":"2025-276CF","EPOCH":"2026-07-18T03:52:47.573472","CLASSIFICATION_TYPE":"U","MEAN_MOTION":15.20602671,"ECCENTRICITY":0.0000824,"INCLINATION":97.4176,"RA_OF_ASC_NODE":272.281,"ARG_OF_PERICENTER":184.568,"MEAN_ANOMALY":175.5548,"EPHEMERIS_TYPE":0,"NORAD_CAT_ID":66743,"ELEMENT_SET_NO":999,"REV_AT_EPOCH":3513,"BSTAR":0.00013730262,"MEAN_MOTION_DOT":0.00002941,"MEAN_MOTION_DDOT":0},{"OBJECT_NAME":"NUSAT-53 (JANE GOODALL)","OBJECT_ID":"2026-067S","EPOCH":"2026-07-18T03:59:32.370432","CLASSIFICATION_TYPE":"U","MEAN_MOTION":15.18866724,"ECCENTRICITY":0.00003108,"INCLINATION":97.4578,"RA_OF_ASC_NODE":157.2473,"ARG_OF_PERICENTER":319.5566,"MEAN_ANOMALY":40.5645,"EPHEMERIS_TYPE":0,"NORAD_CAT_ID":68432,"ELEMENT_SET_NO":999,"REV_AT_EPOCH":1664,"BSTAR":0.00014215317,"MEAN_MOTION_DOT":0.00002895,"MEAN_MOTION_DDOT":0},{"OBJECT_NAME":"NUSAT-54 (BRANCA MARQUES)","OBJECT_ID":"2026-067AC","EPOCH":"2026-07-17T19:55:15.941568","CLASSIFICATION_TYPE":"U","MEAN_MOTION":15.18010854,"ECCENTRICITY":0.00035316,"INCLINATION":97.4561,"RA_OF_ASC_NODE":156.7545,"ARG_OF_PERICENTER":350.7303,"MEAN_ANOMALY":9.3865,"EPHEMERIS_TYPE":0,"NORAD_CAT_ID":68442,"ELEMENT_SET_NO":999,"REV_AT_EPOCH":1658,"BSTAR":0.0001436706,"MEAN_MOTION_DOT":0.00002855,"MEAN_MOTION_DDOT":0}]}
