NUSAT-47                
1 66743U 25276CF  26199.16166173  .00002941  00000+0  13730-3 0  9998
2 66743  97.4176 272.2810 0000824 184.5680 175.5548 15.20602671 35137
NUSAT-53 (JANE GOODALL) 
1 68432U 26067S   26199.16634688  .00002895  00000+0  14215-3 0  9992
2 68432  97.4578 157.2473 0000310 319.5566  40.5645 15.18866724 16642
NUSAT-54 (BRANCA MARQU*)
1 68442U 26067AC  26198.83004562  .00002855  00000+0  14367-3 0  9992
2 68442  97.4561 156.7545 0003531 350.7303   9.3865 15.18010854 16588
